BEIDOU-2 IGSO-1 (C06)   
1 36828U 10036A   25247.79105115 -.00000153  00000+0  00000+0 0  9994
2 36828  54.2793 165.5477 0048496 216.4459 352.2256  1.00253955 55236
BEIDOU-2 G4 (C04)       
1 37210U 10057A   25251.19402968 -.00000112  00000+0  00000+0 0  9993
2 37210   2.9407  70.2397 0007854 168.4068 338.7903  1.00271378 54463
BEIDOU-2 IGSO-2 (C07)   
1 37256U 10068A   25250.49029323 -.00000161  00000+0  00000+0 0  9991
2 37256  48.0577 275.3340 0048726 216.4259 138.7752  1.00262553 53955
BEIDOU-2 IGSO-3 (C08)   
1 37384U 11013A   25250.89397484 -.00000154  00000+0  00000+0 0  9996
2 37384  62.0147  42.8276 0036106 178.9252 192.7992  1.00293900 52837
BEIDOU-2 IGSO-4 (C09)   
1 37763U 11038A   25248.48755211 -.00000089  00000+0  00000+0 0  9999
2 37763  54.5811 168.2309 0144855 230.7977 215.1874  1.00261623 51794
BEIDOU-2 IGSO-5 (C10)   
1 37948U 11073A   25250.53895119 -.00000097  00000+0  00000+0 0  9993
2 37948  48.1953 275.0405 0110469 221.4354 140.4090  1.00268477 50309
BEIDOU-2 G5 (C05)       
1 38091U 12008A   25251.17393606  .00000055  00000+0  00000+0 0  9990
2 38091   2.8644  71.0338 0006376 230.7491 167.0674  1.00274712 49544
BEIDOU-2 M3 (C11)       
1 38250U 12018A   25250.74876552 -.00000036  00000+0  00000+0 0  9996
2 38250  55.9979 314.3848 0023864 266.5576  93.2504  1.86233587 90684
BEIDOU-2 M4 (C12)       
1 38251U 12018B   25251.21852422 -.00000037  00000+0  00000+0 0  9991
2 38251  55.8998 313.6060 0014850 265.9712  93.9398  1.86231980 90697
BEIDOU-2 M6 (C14)       
1 38775U 12050B   25249.31837064  .00000028  00000+0  00000+0 0  9990
2 38775  56.2921  72.2975 0011317 357.6607   2.3997  1.86230964 88023
BEIDOU-2 G6 (C02)       
1 38953U 12059A   25251.03624383 -.00000176  00000+0  00000+0 0  9992
2 38953   3.6985  76.4749 0006569 316.3772  51.5946  1.00272054 47083
BEIDOU-3S IGSO-1S (C31) 
1 40549U 15019A   25250.60975609 -.00000130  00000+0  00000+0 0  9997
2 40549  49.7305 298.8682 0041409 196.2077 164.5120  1.00259815 38242
BEIDOU-3S M2S (C58)     
1 40748U 15037A   25249.81191939 -.00000031  00000+0  00000+0 0  9995
2 40748  55.1205 311.7919 0012246 253.6529 106.2936  1.86229114 68848
BEIDOU-3S M1S (C57)     
1 40749U 15037B   25251.12871477 -.00000034  00000+0  00000+0 0  9998
2 40749  55.1159 311.7375 0002347 359.6312   0.4493  1.86253879 68872
BEIDOU-3S IGSO-2S (C56) 
1 40938U 15053A   25250.99003297 -.00000093  00000+0  00000+0 0  9992
2 40938  49.6621 262.1372 0062404 189.4517 345.8090  1.00291763 36522
BEIDOU-2 IGSO-6 (C13)   
1 41434U 16021A   25250.87663992 -.00000136  00000+0  00000+0 0  9999
2 41434  59.8331  40.8562 0055932 227.4108 130.2320  1.00271641 34640
BEIDOU-2 G7 (C03)       
1 41586U 16037A   25251.04135719 -.00000355  00000+0  00000+0 0  9998
2 41586   1.5178  66.4103 0005495 351.8144  54.5959  1.00270291  4066
BEIDOU-3 M1 (C19)       
1 43001U 17069A   25249.08393102  .00000029  00000+0  00000+0 0  9998
2 43001  56.4405  72.4597 0007340 318.4838  41.5271  1.86231294 53315
BEIDOU-3 M2 (C20)       
1 43002U 17069B   25250.63298536  .00000024  00000+0  00000+0 0  9992
2 43002  56.4425  72.4444 0006266 356.4680   3.5880  1.86230786 53333
BEIDOU-3 M7 (C27)       
1 43107U 18003A   25248.76652076 -.00000033  00000+0  00000+0 0  9992
2 43107  54.5798 312.2224 0002942  98.1765 261.9355  1.86232536 52053
BEIDOU-3 M8 (C28)       
1 43108U 18003B   25247.09976211 -.00000038  00000+0  00000+0 0  9993
2 43108  54.5741 312.2636 0004504 254.5766 105.4478  1.86231018 52034
BEIDOU-3 M4 (C22)       
1 43207U 18018A   25250.22605694  .00000026  00000+0  00000+0 0  9998
2 43207  56.3999  72.4955 0005883  36.3386 323.7640  1.86231164 51478
BEIDOU-3 M3 (C21)       
1 43208U 18018B   25250.82958523  .00000023  00000+0  00000+0 0  9994
2 43208  56.4006  72.4796 0005549 341.4364  18.6028  1.86231089 51484
BEIDOU-3 M9 (C29)       
1 43245U 18029A   25251.04620285 -.00000032  00000+0  00000+0 0  9994
2 43245  54.4487 309.8063 0002037 231.8597 128.2027  1.86232591 50642
BEIDOU-3 M10 (C30)      
1 43246U 18029B   25250.44352236 -.00000030  00000+0  00000+0 0  9994
2 43246  54.4467 309.8542 0002570   4.1380 355.9456  1.86229147 50611
BEIDOU-2 IGSO-7 (C16)   
1 43539U 18057A   25248.68650163 -.00000163  00000+0  00000+0 0  9990
2 43539  55.1701 165.5314 0092415 236.6181 301.5631  1.00286929 26271
BEIDOU-3 M5 (C23)       
1 43581U 18062A   25249.05734431  .00000011  00000+0  00000+0 0  9997
2 43581  54.0966 191.9650 0004455 296.8430  63.0825  1.86228603 48343
BEIDOU-3 M6 (C24)       
1 43582U 18062B   25251.06880348  .00000024  00000+0  00000+0 0  9995
2 43582  54.0960 191.8859 0005661  18.7786 341.2182  1.86229610 48383
BEIDOU-3 M12 (C26)      
1 43602U 18067A   25251.00554197  .00000024  00000+0  00000+0 0  9997
2 43602  54.1897 190.6102 0008006  29.0046 331.0174  1.86227564 47860
BEIDOU-3 M11 (C25)      
1 43603U 18067B   25248.99195763  .00000010  00000+0  00000+0 0  9997
2 43603  54.1871 190.6427 0004669  16.0751 343.9120  1.86227080 47858
BEIDOU-3 M13 (C32)      
1 43622U 18072A   25251.09751966  .00000020  00000+0  00000+0 0  9993
2 43622  56.3740  71.9850 0004148 322.7838  37.2445  1.86231184 47408
BEIDOU-3 M14 (C33)      
1 43623U 18072B   25250.96299278  .00000021  00000+0  00000+0 0  9993
2 43623  56.3760  71.9833 0003671  17.9286 342.1422  1.86231191 47391
BEIDOU-3 M16 (C35)      
1 43647U 18078A   25251.12204152 -.00000033  00000+0  00000+0 0  9995
2 43647  54.3450 309.8645 0005792  23.5505 336.5566  1.86232219 46902
BEIDOU-3 M15 (C34)      
1 43648U 18078B   25251.25123050 -.00000033  00000+0  00000+0 0  9997
2 43648  54.3407 309.8613 0002432  32.9124 327.1831  1.86232245 46921
BEIDOU-3 G1 (C59)       
1 43683U 18085A   25251.26145662 -.00000278  00000+0  00000+0 0  9999
2 43683   2.8648 105.5486 0004097   5.7961 110.3477  1.00275669 25232
BEIDOU-3 M17 (C36)      
1 43706U 18093A   25248.23132044  .00000009  00000+0  00000+0 0  9998
2 43706  54.1803 191.9642 0009229 292.8604  97.2844  1.86228271 46234
BEIDOU-3 M18 (C37)      
1 43707U 18093B   25245.36313868  .00000016  00000+0  00000+0 0  9993
2 43707  54.1814 192.0532 0007749 322.6403  37.2842  1.86230050 46174
BEIDOU-3 IGSO-1 (C38)   
1 44204U 19023A   25250.84867199 -.00000194  00000+0  00000+0 0  9998
2 44204  58.2999  40.5665 0025020 215.2722 155.9021  1.00272743  4388
BEIDOU-2 G8 (C01)       
1 44231U 19027A   25251.26232330 -.00000248  00000+0  00000+0 0  9992
2 44231   1.4141  74.3106 0006451 265.6163 246.6310  1.00272873 23257
BEIDOU-3 IGSO-2 (C39)   
1 44337U 19035A   25247.72162405 -.00000168  00000+0  00000+0 0  9990
2 44337  55.2150 161.3740 0035070 208.8002 349.2936  1.00246134 22807
BEIDOU-3 M24 (C46)      
1 44542U 19061A   25250.80400546  .00000023  00000+0  00000+0 0  9990
2 44542  54.4075 192.2522 0008698   1.4092 358.5676  1.86229324 40535
BEIDOU-3 M23 (C45)      
1 44543U 19061B   25251.13360064  .00000025  00000+0  00000+0 0  9990
2 44543  54.4060 192.2095 0005674 346.6583 147.0883  1.86229359 40545
BEIDOU-3 IGSO-3 (C40)   
1 44709U 19073A   25249.49710253 -.00000135  00000+0  00000+0 0  9995
2 44709  55.2870 283.9639 0045662 191.4162 168.5889  1.00273664 21614
BEIDOU-3 M22 (C44)      
1 44793U 19078A   25251.18237293 -.00000033  00000+0  00000+0 0  9997
2 44793  54.1913 309.7394 0004530  32.1947 327.9133  1.86232116 39397
BEIDOU-3 M21 (C43)      
1 44794U 19078B   25247.02213959 -.00000034  00000+0  00000+0 0  9990
2 44794  54.1687 309.8523 0002598  18.8605 341.2245  1.86227795 39328
BEIDOU-3 M19 (C41)      
1 44864U 19090A   25248.07063811  .00000027  00000+0  00000+0 0  9999
2 44864  56.3051  72.2322 0015481 287.9700 249.9106  1.86231646 38928
BEIDOU-3 M20 (C42)      
1 44865U 19090B   25251.17519684  .00000020  00000+0  00000+0 0  9992
2 44865  56.3101  72.1632 0012994 303.7576 245.1960  1.86231411 38962
BEIDOU-3 G2 (C60)       
1 45344U 20017A   25251.03537716 -.00000142  00000+0  00000+0 0  9993
2 45344   2.8187  41.9134 0001006 306.6451  91.5858  1.00271429 20433
BEIDOU-3 G3 (C61)       
1 45807U 20040A   25249.49108169 -.00000355  00000+0  00000+0 0  9992
2 45807   1.7497  65.4666 0003891 335.2043 232.4014  1.00265638 19229
BEIDOU-3 G4 (C62)       
1 56564U 23066A   25251.21017167 -.00000114  00000+0  00000+0 0  9998
2 56564   1.0342 295.6894 0006178 209.6394  77.9231  1.00271742  8568
BEIDOU-3 M28 (C50)      
1 58654U 23207A   25250.85980978  .00000019  00000+0  00000+0 0  9998
2 58654  55.4983  71.8452 0000677  41.5861 318.4773  1.86229833 11586
BEIDOU-3 M26 (C48)      
1 58655U 23207B   25249.58436530  .00000024  00000+0  00000+0 0  9993
2 58655  55.4993  71.8745 0000884 238.7502 121.3054  1.86231534 11545
BEIDOU-3 M25 (C47)      
1 61186U 24168B   25251.09668146 -.00000036  00000+0  00000+0 0  9996
2 61186  54.7230 312.0356 0004817 278.6925 132.5679  1.86229956  6539
BEIDOU-3 M27 (C49)      
1 61187U 24168C   25250.27973556 -.00000033  00000+0  00000+0 0  9997
2 61187  54.7193 312.0481 0001009 302.8481  55.5969  1.86230059  3982
